{"type": "FeatureCollection", "features": [ {"type": "Feature", "properties": {"norad_id": 34141, "name": "COSMOS 2251 DEB", "group": "cosmos-2251-debris", "lat": -56.18862460902928, "lon": -130.948353285905, "alt_km": 756.3764437894451, "timestamp": "2025-12-15T11:38:37.545916+00:00", "meta": {"OBJECT_NAME": "COSMOS 2251 DEB", "OBJECT_ID": "1993-036LN", "EPOCH": "2025-12-14T13:33:23.196384", "MEAN_MOTION": 14.49266588, "ECCENTRICITY": 0.00470101, "INCLINATION": 74.0116, "RA_OF_ASC_NODE": 25.4324, "ARG_OF_PERICENTER": 111.094, "MEAN_ANOMALY": 8.6162, "EPHEMERIS_TYPE": 0, "CLASSIFICATION_TYPE": "U", "NORAD_CAT_ID": 34141, "ELEMENT_SET_NO": 999, "REV_AT_EPOCH": 87720, "BSTAR": 0.0012297925, "MEAN_MOTION_DOT": 4.732e-05, "MEAN_MOTION_DDOT": 0}, "tle": {"line1": "1 34141U 93036LN  25348.56485181  .00004732  00000+0  12298-2 0  9993", "line2": "2 34141  74.0116  25.4324 0047010 111.0940   8.6162 14.49266588877202"}}, "geometry": {"type": "Point", "coordinates": [-130.948353285905, -56.18862460902928]}}, {"type": "Feature", "properties": {"norad_id": 34270, "name": "COSMOS 2251 DEB", "group": "cosmos-2251-debris", "lat": -7.346372828127649, "lon": -60.78173373742842, "alt_km": 686.1967378266863, "timestamp": "2025-12-15T11:38:37.545925+00:00", "meta": {"OBJECT_NAME": "COSMOS 2251 DEB", "OBJECT_ID": "1993-036LQ", "EPOCH": "2025-12-14T22:34:08.765472", "MEAN_MOTION": 14.65190226, "ECCENTRICITY": 0.00477997, "INCLINATION": 74.0112, "RA_OF_ASC_NODE": 302.3861, "ARG_OF_PERICENTER": 94.5069, "MEAN_ANOMALY": 266.1562, "EPHEMERIS_TYPE": 0, "CLASSIFICATION_TYPE": "U", "NORAD_CAT_ID": 34270, "ELEMENT_SET_NO": 999, "REV_AT_EPOCH": 89128, "BSTAR": 0.00058497092, "MEAN_MOTION_DOT": 3.171e-05, "MEAN_MOTION_DDOT": 0}, "tle": {"line1": "1 34270U 93036LQ  25348.94037923  .00003171  00000+0  58497-3 0  9993", "line2": "2 34270  74.0112 302.3861 0047799  94.5069 266.1562 14.65190226891287"}}, "geometry": {"type": "Point", "coordinates": [-60.78173373742842, -7.346372828127649]}}, {"type": "Feature", "properties": {"norad_id": 34271, "name": "COSMOS 2251 DEB", "group": "cosmos-2251-debris", "lat": -5.291600764658555, "lon": -167.52735446340554, "alt_km": 665.5896953287693, "timestamp": "2025-12-15T11:38:37.545935+00:00", "meta": {"OBJECT_NAME": "COSMOS 2251 DEB", "OBJECT_ID": "1993-036LR", "EPOCH": "2025-12-14T22:55:09.154848", "MEAN_MOTION": 14.70816287, "ECCENTRICITY": 0.00187942, "INCLINATION": 74.0202, "RA_OF_ASC_NODE": 195.0233, "ARG_OF_PERICENTER": 248.8144, "MEAN_ANOMALY": 179.427, "EPHEMERIS_TYPE": 0, "CLASSIFICATION_TYPE": "U", "NORAD_CAT_ID": 34271, "ELEMENT_SET_NO": 999, "REV_AT_EPOCH": 88267, "BSTAR": 0.0011804925, "MEAN_MOTION_DOT": 7.208e-05, "MEAN_MOTION_DDOT": 0}, "tle": {"line1": "1 34271U 93036LR  25348.95496707  .00007208  00000+0  11805-2 0  9990", "line2": "2 34271  74.0202 195.0233 0018794 248.8144 179.4270 14.70816287882672"}}, "geometry": {"type": "Point", "coordinates": [-167.52735446340554, -5.291600764658555]}}, {"type": "Feature", "properties": {"norad_id": 34273, "name": "COSMOS 2251 DEB", "group": "cosmos-2251-debris", "lat": -71.3645847647025, "lon": 24.092067324355114, "alt_km": 692.9485828441348, "timestamp": "2025-12-15T11:38:37.545945+00:00", "meta": {"OBJECT_NAME": "COSMOS 2251 DEB", "OBJECT_ID": "1993-036LT", "EPOCH": "2025-12-14T23:24:04.154976", "MEAN_MOTION": 14.61251511, "ECCENTRICITY": 0.00139958, "INCLINATION": 74.0361, "RA_OF_ASC_NODE": 83.1535, "ARG_OF_PERICENTER": 209.142, "MEAN_ANOMALY": 268.1248, "EPHEMERIS_TYPE": 0, "CLASSIFICATION_TYPE": "U", "NORAD_CAT_ID": 34273, "ELEMENT_SET_NO": 999, "REV_AT_EPOCH": 88654, "BSTAR": 0.00063423514, "MEAN_MOTION_DOT": 3.104e-05, "MEAN_MOTION_DDOT": 0}, "tle": {"line1": "1 34273U 93036LT  25348.97504809  .00003104  00000+0  63424-3 0  9993", "line2": "2 34273  74.0361  83.1535 0013995 209.1420 268.1248 14.61251511886541"}}, "geometry": {"type": "Point", "coordinates": [24.092067324355114, -71.3645847647025]}}, {"type": "Feature", "properties": {"norad_id": 34274, "name": "COSMOS 2251 DEB", "group": "cosmos-2251-debris", "lat": 35.22704640178289, "lon": 74.96487313307387, "alt_km": 690.3873675655905, "timestamp": "2025-12-15T11:38:37.545955+00:00", "meta": {"OBJECT_NAME": "COSMOS 2251 DEB", "OBJECT_ID": "1993-036LU", "EPOCH": "2025-12-14T16:32:37.239360", "MEAN_MOTION": 14.64814685, "ECCENTRICITY": 0.00219451, "INCLINATION": 74.0043, "RA_OF_ASC_NODE": 64.811, "ARG_OF_PERICENTER": 214.8849, "MEAN_ANOMALY": 307.0995, "EPHEMERIS_TYPE": 0, "CLASSIFICATION_TYPE": "U", "NORAD_CAT_ID": 34274, "ELEMENT_SET_NO": 999, "REV_AT_EPOCH": 88704, "BSTAR": 0.00097630452, "MEAN_MOTION_DOT": 5.201e-05, "MEAN_MOTION_DDOT": 0}, "tle": {"line1": "1 34274U 93036LU  25348.68931990  .00005201  00000+0  97630-3 0  9993", "line2": "2 34274  74.0043  64.8110 0021945 214.8849 307.0995 14.64814685887044"}}, "geometry": {"type": "Point", "coordinates": [74.96487313307387, 35.22704640178289]}}, {"type": "Feature", "properties": {"norad_id": 34276, "name": "COSMOS 2251 DEB", "group": "cosmos-2251-debris", "lat": -71.23424156366653, "lon": -42.41824627418121, "alt_km": 695.7003230158307, "timestamp": "2025-12-15T11:38:37.545965+00:00", "meta": {"OBJECT_NAME": "COSMOS 2251 DEB", "OBJECT_ID": "1993-036LW", "EPOCH": "2025-12-14T10:19:07.622976", "MEAN_MOTION": 14.57245605, "ECCENTRICITY": 0.0022519, "INCLINATION": 74.0236, "RA_OF_ASC_NODE": 82.1069, "ARG_OF_PERICENTER": 228.6874, "MEAN_ANOMALY": 257.7341, "EPHEMERIS_TYPE": 0, "CLASSIFICATION_TYPE": "U", "NORAD_CAT_ID": 34276, "ELEMENT_SET_NO": 999, "REV_AT_EPOCH": 88617, "BSTAR": 0.00087742844, "MEAN_MOTION_DOT": 3.952e-05, "MEAN_MOTION_DDOT": 0}, "tle": {"line1": "1 34276U 93036LW  25348.42994934  .00003952  00000+0  87743-3 0  9999", "line2": "2 34276  74.0236  82.1069 0022519 228.6874 257.7341 14.57245605886176"}}, "geometry": {"type": "Point", "coordinates": [-42.41824627418121, -71.23424156366653]}}, {"type": "Feature", "properties": {"norad_id": 34297, "name": "COSMOS 2251 DEB", "group": "cosmos-2251-debris", "lat": 63.596803097891375, "lon": -45.633020094676596, "alt_km": 761.2359087526756, "timestamp": "2025-12-15T11:38:37.545975+00:00", "meta": {"OBJECT_NAME": "COSMOS 2251 DEB", "OBJECT_ID": "1993-036MT", "EPOCH": "2025-12-14T22:16:22.166112", "MEAN_MOTION": 14.36631198, "ECCENTRICITY": 0.00173855, "INCLINATION": 74.0487, "RA_OF_ASC_NODE": 280.214, "ARG_OF_PERICENTER": 348.3809, "MEAN_ANOMALY": 79.9398, "EPHEMERIS_TYPE": 0, "CLASSIFICATION_TYPE": "U", "NORAD_CAT_ID": 34297, "ELEMENT_SET_NO": 999, "REV_AT_EPOCH": 88096, "BSTAR": 0.00015258962, "MEAN_MOTION_DOT": 4.23e-06, "MEAN_MOTION_DDOT": 0}, "tle": {"line1": "1 34297U 93036MT  25348.92803433  .00000423  00000+0  15259-3 0  9993", "line2": "2 34297  74.0487 280.2140 0017385 348.3809  79.9398 14.36631198880961"}}, "geometry": {"type": "Point", "coordinates": [-45.633020094676596, 63.596803097891375]}}, {"type": "Feature", "properties": {"norad_id": 34299, "name": "COSMOS 2251 DEB", "group": "cosmos-2251-debris", "lat": -69.84713909176962, "lon": -160.19098085072255, "alt_km": 351.1437626135248, "timestamp": "2025-12-15T11:38:37.545985+00:00", "meta": {"OBJECT_NAME": "COSMOS 2251 DEB", "OBJECT_ID": "1993-036MV", "EPOCH": "2025-12-14T16:17:52.746144", "MEAN_MOTION": 15.77335334, "ECCENTRICITY": 0.00169209, "INCLINATION": 73.9746, "RA_OF_ASC_NODE": 330.1031, "ARG_OF_PERICENTER": 62.4789, "MEAN_ANOMALY": 297.8155, "EPHEMERIS_TYPE": 0, "CLASSIFICATION_TYPE": "U", "NORAD_CAT_ID": 34299, "ELEMENT_SET_NO": 999, "REV_AT_EPOCH": 89041, "BSTAR": 0.0055958554, "MEAN_MOTION_DOT": 0.01025148, "MEAN_MOTION_DDOT": 0}, "tle": {"line1": "1 34299U 93036MV  25348.67908271  .01025148  00000+0  55959-2 0  9995", "line2": "2 34299  73.9746 330.1031 0016920  62.4789 297.8155 15.77335334890410"}}, "geometry": {"type": "Point", "coordinates": [-160.19098085072255, -69.84713909176962]}}, {"type": "Feature", "properties": {"norad_id": 34301, "name": "COSMOS 2251 DEB", "group": "cosmos-2251-debris", "lat": 48.78547507284391, "lon": -37.872125100796346, "alt_km": 610.3010863536374, "timestamp": "2025-12-15T11:38:37.545995+00:00", "meta": {"OBJECT_NAME": "COSMOS 2251 DEB", "OBJECT_ID": "1993-036MX", "EPOCH": "2025-12-14T22:49:00.859296", "MEAN_MOTION": 14.84671361, "ECCENTRICITY": 0.00111476, "INCLINATION": 74.0046, "RA_OF_ASC_NODE": 162.3071, "ARG_OF_PERICENTER": 223.1829, "MEAN_ANOMALY": 290.0111, "EPHEMERIS_TYPE": 0, "CLASSIFICATION_TYPE": "U", "NORAD_CAT_ID": 34301, "ELEMENT_SET_NO": 999, "REV_AT_EPOCH": 88433, "BSTAR": 0.0018533089, "MEAN_MOTION_DOT": 0.00015703, "MEAN_MOTION_DDOT": 0}, "tle": {"line1": "1 34301U 93036MX  25348.95070439  .00015703  00000+0  18533-2 0  9998", "line2": "2 34301  74.0046 162.3071 0011147 223.1829 290.0111 14.84671361884336"}}, "geometry": {"type": "Point", "coordinates": [-37.872125100796346, 48.78547507284391]}}, {"type": "Feature", "properties": {"norad_id": 34302, "name": "COSMOS 2251 DEB", "group": "cosmos-2251-debris", "lat": 47.101825132532554, "lon": -79.21230162742584, "alt_km": 808.0670858827252, "timestamp": "2025-12-15T11:38:37.546005+00:00", "meta": {"OBJECT_NAME": "COSMOS 2251 DEB", "OBJECT_ID": "1993-036MY", "EPOCH": "2025-12-14T18:55:07.724640", "MEAN_MOTION": 14.39340473, "ECCENTRICITY": 0.00788903, "INCLINATION": 74.1779, "RA_OF_ASC_NODE": 119.8314, "ARG_OF_PERICENTER": 334.4813, "MEAN_ANOMALY": 146.0411, "EPHEMERIS_TYPE": 0, "CLASSIFICATION_TYPE": "U", "NORAD_CAT_ID": 34302, "ELEMENT_SET_NO": 999, "REV_AT_EPOCH": 87750, "BSTAR": 0.00062170282, "MEAN_MOTION_DOT": 1.978e-05, "MEAN_MOTION_DDOT": 0}, "tle": {"line1": "1 34302U 93036MY  25348.78828385  .00001978  00000+0  62170-3 0  9997", "line2": "2 34302  74.1779 119.8314 0078890 334.4813 146.0411 14.39340473877506"}}, "geometry": {"type": "Point", "coordinates": [-79.21230162742584, 47.101825132532554]}}]}